ALOS-2                  
1 39766U 14029A   26089.88782935  .00001680  00000+0  23194-3 0  9998
2 39766  97.9189 188.1768 0001900 104.8450 255.2972 14.79454629640000
YAOGAN-29               
1 41038U 15069A   26089.91309672  .00001032  00000+0  13359-3 0  9998
2 41038  98.0117 118.3970 0000307   1.6145 358.5069 14.83020138559027
ASTRO-H (HITOMI)        
1 41337U 16012A   26089.58771631  .00004225  00000+0  24690-3 0  9997
2 41337  30.9991 221.6731 0009610 182.0837 177.9762 15.10137543555394
HXMT (HUIYAN)           
1 42758U 17034A   26089.90490086  .00007273  00000+0  36086-3 0  9996
2 42758  43.0134 258.7012 0031601   6.3762 353.7483 15.17732002485764
SAOCOM 1A               
1 43641U 18076A   26089.95880894  .00001395  00000+0  18178-3 0  9991
2 43641  97.8904 277.8315 0001490  86.0623 274.0760 14.82166835404513
H-2A R/B                
1 43682U 18084L   26089.89021145  .00027721  00000+0  63939-3 0  9990
2 43682  98.8701 311.8220 0023624 311.0942  48.8260 15.42258527409048
SAOCOM 1B               
1 46265U 20059A   26089.92254501  .00000533  00000+0  73548-4 0  9993
2 46265  97.8890 276.8929 0001494  84.9032 275.2352 14.82158472301892
CSS (TIANHE)            
1 48274U 21035A   26089.76155282  .00029270  00000+0  33197-3 0  9992
2 48274  41.4667  79.8424 0003716  71.4537 288.6706 15.61714186280909
COSMOS 2550             
1 48865U 21056A   26087.49272868 -.00000186  00000+0  18968-6 0  9997
2 48865  67.1421 344.0047 0008440 269.5686  90.4502 15.33828274266348
CZ-2C R/B               
1 52794U 22058K   26089.52569931  .00050627  00000+0  69335-3 0  9997
2 52794  50.1881 210.9842 0041497 290.2185  69.4326 15.55811886213374
CZ-2C R/B               
1 54039U 22132E   26089.75755071  .00051150  00000+0  54081-3 0  9995
2 54039  97.2953  93.7450 0017045  21.9400 338.2585 15.63845806193664
GSLV R/B                
1 54149U 22138AN  26089.91304595  .00003599  00000+0  30944-3 0  9998
2 54149  87.3858 159.2570 0023976  76.8181 283.5724 14.96908760187109
