CCSDS_OMM_VERS = 2.0
CREATION_DATE  = 
ORIGINATOR     = 

OBJECT_NAME    = ALOS-2
OBJECT_ID      = 2014-029A
CENTER_NAME    = EARTH
REF_FRAME      = TEME
TIME_SYSTEM    = UTC
MEAN_ELEMENT_THEORY = SGP/SGP4

EPOCH          = 2026-03-30T21:18:28.455840
MEAN_MOTION    = 14.79454629
ECCENTRICITY   = .00019001
INCLINATION    = 97.9189
RA_OF_ASC_NODE = 188.1768
ARG_OF_PERICENTER = 104.8450
MEAN_ANOMALY   = 255.2972

EPHEMERIS_TYPE = 0
CLASSIFICATION_TYPE = U
NORAD_CAT_ID   = 39766
ELEMENT_SET_NO = 999
REV_AT_EPOCH   = 64000
BSTAR          = .2319418E-3
MEAN_MOTION_DOT = .168E-4
MEAN_MOTION_DDOT = 0

CCSDS_OMM_VERS = 2.0
CREATION_DATE  = 
ORIGINATOR     = 

OBJECT_NAME    = YAOGAN-29
OBJECT_ID      = 2015-069A
CENTER_NAME    = EARTH
REF_FRAME      = TEME
TIME_SYSTEM    = UTC
MEAN_ELEMENT_THEORY = SGP/SGP4

EPOCH          = 2026-03-30T21:54:51.556608
MEAN_MOTION    = 14.83020138
ECCENTRICITY   = .00003075
INCLINATION    = 98.0117
RA_OF_ASC_NODE = 118.3970
ARG_OF_PERICENTER = 1.6145
MEAN_ANOMALY   = 358.5069

EPHEMERIS_TYPE = 0
CLASSIFICATION_TYPE = U
NORAD_CAT_ID   = 41038
ELEMENT_SET_NO = 999
REV_AT_EPOCH   = 55902
BSTAR          = .1335943E-3
MEAN_MOTION_DOT = .1032E-4
MEAN_MOTION_DDOT = 0

CCSDS_OMM_VERS = 2.0
CREATION_DATE  = 
ORIGINATOR     = 

OBJECT_NAME    = ASTRO-H (HITOMI)
OBJECT_ID      = 2016-012A
CENTER_NAME    = EARTH
REF_FRAME      = TEME
TIME_SYSTEM    = UTC
MEAN_ELEMENT_THEORY = SGP/SGP4

EPOCH          = 2026-03-30T14:06:18.689184
MEAN_MOTION    = 15.10137543
ECCENTRICITY   = .00096107
INCLINATION    = 30.9991
RA_OF_ASC_NODE = 221.6731
ARG_OF_PERICENTER = 182.0837
MEAN_ANOMALY   = 177.9762

EPHEMERIS_TYPE = 0
CLASSIFICATION_TYPE = U
NORAD_CAT_ID   = 41337
ELEMENT_SET_NO = 999
REV_AT_EPOCH   = 55539
BSTAR          = .24690034E-3
MEAN_MOTION_DOT = .4225E-4
MEAN_MOTION_DDOT = 0

CCSDS_OMM_VERS = 2.0
CREATION_DATE  = 
ORIGINATOR     = 

OBJECT_NAME    = HXMT (HUIYAN)
OBJECT_ID      = 2017-034A
CENTER_NAME    = EARTH
REF_FRAME      = TEME
TIME_SYSTEM    = UTC
MEAN_ELEMENT_THEORY = SGP/SGP4

EPOCH          = 2026-03-30T21:43:03.434304
MEAN_MOTION    = 15.17732002
ECCENTRICITY   = .00316013
INCLINATION    = 43.0134
RA_OF_ASC_NODE = 258.7012
ARG_OF_PERICENTER = 6.3762
MEAN_ANOMALY   = 353.7483

EPHEMERIS_TYPE = 0
CLASSIFICATION_TYPE = U
NORAD_CAT_ID   = 42758
ELEMENT_SET_NO = 999
REV_AT_EPOCH   = 48576
BSTAR          = .36085777E-3
MEAN_MOTION_DOT = .7273E-4
MEAN_MOTION_DDOT = 0

CCSDS_OMM_VERS = 2.0
CREATION_DATE  = 
ORIGINATOR     = 

OBJECT_NAME    = SAOCOM 1A
OBJECT_ID      = 2018-076A
CENTER_NAME    = EARTH
REF_FRAME      = TEME
TIME_SYSTEM    = UTC
MEAN_ELEMENT_THEORY = SGP/SGP4

EPOCH          = 2026-03-30T23:00:41.092416
MEAN_MOTION    = 14.82166835
ECCENTRICITY   = .00014906
INCLINATION    = 97.8904
RA_OF_ASC_NODE = 277.8315
ARG_OF_PERICENTER = 86.0623
MEAN_ANOMALY   = 274.0760

EPHEMERIS_TYPE = 0
CLASSIFICATION_TYPE = U
NORAD_CAT_ID   = 43641
ELEMENT_SET_NO = 999
REV_AT_EPOCH   = 40451
BSTAR          = .18177527E-3
MEAN_MOTION_DOT = .1395E-4
MEAN_MOTION_DDOT = 0

CCSDS_OMM_VERS = 2.0
CREATION_DATE  = 
ORIGINATOR     = 

OBJECT_NAME    = H-2A R/B
OBJECT_ID      = 2018-084L
CENTER_NAME    = EARTH
REF_FRAME      = TEME
TIME_SYSTEM    = UTC
MEAN_ELEMENT_THEORY = SGP/SGP4

EPOCH          = 2026-03-30T21:21:54.269280
MEAN_MOTION    = 15.42258527
ECCENTRICITY   = .00236245
INCLINATION    = 98.8701
RA_OF_ASC_NODE = 311.8220
ARG_OF_PERICENTER = 311.0942
MEAN_ANOMALY   = 48.8260

EPHEMERIS_TYPE = 0
CLASSIFICATION_TYPE = U
NORAD_CAT_ID   = 43682
ELEMENT_SET_NO = 999
REV_AT_EPOCH   = 40904
BSTAR          = .63939275E-3
MEAN_MOTION_DOT = .27721E-3
MEAN_MOTION_DDOT = 0

CCSDS_OMM_VERS = 2.0
CREATION_DATE  = 
ORIGINATOR     = 

OBJECT_NAME    = SAOCOM 1B
OBJECT_ID      = 2020-059A
CENTER_NAME    = EARTH
REF_FRAME      = TEME
TIME_SYSTEM    = UTC
MEAN_ELEMENT_THEORY = SGP/SGP4

EPOCH          = 2026-03-30T22:08:27.888864
MEAN_MOTION    = 14.82158472
ECCENTRICITY   = .00014944
INCLINATION    = 97.8890
RA_OF_ASC_NODE = 276.8929
ARG_OF_PERICENTER = 84.9032
MEAN_ANOMALY   = 275.2352

EPHEMERIS_TYPE = 0
CLASSIFICATION_TYPE = U
NORAD_CAT_ID   = 46265
ELEMENT_SET_NO = 999
REV_AT_EPOCH   = 30189
BSTAR          = .73548007E-4
MEAN_MOTION_DOT = .533E-5
MEAN_MOTION_DDOT = 0

CCSDS_OMM_VERS = 2.0
CREATION_DATE  = 
ORIGINATOR     = 

OBJECT_NAME    = CSS (TIANHE)
OBJECT_ID      = 2021-035A
CENTER_NAME    = EARTH
REF_FRAME      = TEME
TIME_SYSTEM    = UTC
MEAN_ELEMENT_THEORY = SGP/SGP4

EPOCH          = 2026-03-30T18:16:38.163648
MEAN_MOTION    = 15.61714186
ECCENTRICITY   = .00037162
INCLINATION    = 41.4667
RA_OF_ASC_NODE = 79.8424
ARG_OF_PERICENTER = 71.4537
MEAN_ANOMALY   = 288.6706

EPHEMERIS_TYPE = 0
CLASSIFICATION_TYPE = U
NORAD_CAT_ID   = 48274
ELEMENT_SET_NO = 999
REV_AT_EPOCH   = 28090
BSTAR          = .33197022E-3
MEAN_MOTION_DOT = .2927E-3
MEAN_MOTION_DDOT = 0

CCSDS_OMM_VERS = 2.0
CREATION_DATE  = 
ORIGINATOR     = 

OBJECT_NAME    = COSMOS 2550
OBJECT_ID      = 2021-056A
CENTER_NAME    = EARTH
REF_FRAME      = TEME
TIME_SYSTEM    = UTC
MEAN_ELEMENT_THEORY = SGP/SGP4

EPOCH          = 2026-03-28T11:49:31.757952
MEAN_MOTION    = 15.33828274
ECCENTRICITY   = .000844
INCLINATION    = 67.1421
RA_OF_ASC_NODE = 344.0047
ARG_OF_PERICENTER = 269.5686
MEAN_ANOMALY   = 90.4502

EPHEMERIS_TYPE = 0
CLASSIFICATION_TYPE = U
NORAD_CAT_ID   = 48865
ELEMENT_SET_NO = 999
REV_AT_EPOCH   = 26634
BSTAR          = .189685E-6
MEAN_MOTION_DOT = -.186E-5
MEAN_MOTION_DDOT = 0

CCSDS_OMM_VERS = 2.0
CREATION_DATE  = 
ORIGINATOR     = 

OBJECT_NAME    = CZ-2C R/B
OBJECT_ID      = 2022-058K
CENTER_NAME    = EARTH
REF_FRAME      = TEME
TIME_SYSTEM    = UTC
MEAN_ELEMENT_THEORY = SGP/SGP4

EPOCH          = 2026-03-30T12:37:00.420384
MEAN_MOTION    = 15.55811886
ECCENTRICITY   = .00414975
INCLINATION    = 50.1881
RA_OF_ASC_NODE = 210.9842
ARG_OF_PERICENTER = 290.2185
MEAN_ANOMALY   = 69.4326

EPHEMERIS_TYPE = 0
CLASSIFICATION_TYPE = U
NORAD_CAT_ID   = 52794
ELEMENT_SET_NO = 999
REV_AT_EPOCH   = 21337
BSTAR          = .69335303E-3
MEAN_MOTION_DOT = .50627E-3
MEAN_MOTION_DDOT = 0

CCSDS_OMM_VERS = 2.0
CREATION_DATE  = 
ORIGINATOR     = 

OBJECT_NAME    = CZ-2C R/B
OBJECT_ID      = 2022-132E
CENTER_NAME    = EARTH
REF_FRAME      = TEME
TIME_SYSTEM    = UTC
MEAN_ELEMENT_THEORY = SGP/SGP4

EPOCH          = 2026-03-30T18:10:52.381344
MEAN_MOTION    = 15.63845806
ECCENTRICITY   = .00170452
INCLINATION    = 97.2953
RA_OF_ASC_NODE = 93.7450
ARG_OF_PERICENTER = 21.9400
MEAN_ANOMALY   = 338.2585

EPHEMERIS_TYPE = 0
CLASSIFICATION_TYPE = U
NORAD_CAT_ID   = 54039
ELEMENT_SET_NO = 999
REV_AT_EPOCH   = 19366
BSTAR          = .54081234E-3
MEAN_MOTION_DOT = .5115E-3
MEAN_MOTION_DDOT = 0

CCSDS_OMM_VERS = 2.0
CREATION_DATE  = 
ORIGINATOR     = 

OBJECT_NAME    = GSLV R/B
OBJECT_ID      = 2022-138AN
CENTER_NAME    = EARTH
REF_FRAME      = TEME
TIME_SYSTEM    = UTC
MEAN_ELEMENT_THEORY = SGP/SGP4

EPOCH          = 2026-03-30T21:54:47.170080
MEAN_MOTION    = 14.96908760
ECCENTRICITY   = .00239761
INCLINATION    = 87.3858
RA_OF_ASC_NODE = 159.2570
ARG_OF_PERICENTER = 76.8181
MEAN_ANOMALY   = 283.5724

EPHEMERIS_TYPE = 0
CLASSIFICATION_TYPE = U
NORAD_CAT_ID   = 54149
ELEMENT_SET_NO = 999
REV_AT_EPOCH   = 18710
BSTAR          = .30943942E-3
MEAN_MOTION_DOT = .3599E-4
MEAN_MOTION_DDOT = 0

